H1 CPF 01  gfz 2022 08 22 00  7341 tandemx   
H2 1003001  6202 36605    2022 08 22 00 59 42 2022 08 27 00 00 42   120 1 1  0 0 0
H9
10 0 59816   9342.000000  0    3222471.652   2923462.558  -5348724.038
10 0 59816   9462.000000  0    2828860.350   2271587.842  -5863518.784
10 0 59816   9582.000000  0    2374493.366   1587732.255  -6275883.489
10 0 59816   9702.000000  0    1866838.118    884777.850  -6578702.595
10 0 59816   9822.000000  0    1314493.017    175774.602  -6766759.936
10 0 59816   9942.000000  0     727042.621   -526297.324  -6836820.685
10 0 59816  10062.000000  0     114892.374  -1208760.717  -6787680.421
10 0 59816  10182.000000  0    -510911.155  -1859463.742  -6620181.983
10 0 59816  10302.000000  0   -1138874.077  -2466990.312  -6337203.714
10 0 59816  10422.000000  0   -1757261.536  -3020857.614  -5943615.846
10 0 59816  10542.000000  0   -2354311.720  -3511695.448  -5446204.972
10 0 59816  10662.000000  0   -2918456.161  -3931406.469  -4853569.309
10 0 59816  10782.000000  0   -3438543.952  -4273305.078  -4175981.841
10 0 59816  10902.000000  0   -3904063.404  -4532230.000  -3425221.989
10 0 59816  11022.000000  0   -4305357.292  -4704629.053  -2614379.211
10 0 59816  11142.000000  0   -4633827.292  -4788613.438  -1757629.471
10 0 59816  11262.000000  0   -4882121.960  -4783979.571   -869988.438
10 0 59816  11382.000000  0   -5044303.281  -4692197.459     32954.287
10 0 59816  11502.000000  0   -5115987.416  -4516365.651    935315.021
10 0 59816  11622.000000  0   -5094455.002  -4261132.283   1821204.582
10 0 59816  11742.000000  0   -4978727.270  -3932583.789   2675017.698
10 0 59816  11862.000000  0   -4769606.742  -3538104.915   3481716.220
10 0 59816  11982.000000  0   -4469681.873  -3086214.155   4227100.606
10 0 59816  12102.000000  0   -4083294.720  -2586377.900   4898064.481
10 0 59816  12222.000000  0   -3616473.320  -2048809.035   5482824.740
10 0 59816  12342.000000  0   -3076832.713  -1484256.322   5971125.775
10 0 59816  12462.000000  0   -2473445.293   -903787.508   6354416.574
10 0 59816  12582.000000  0   -1816682.096   -318569.499   6625995.650
10 0 59816  12702.000000  0   -1118029.344    260347.414   6781120.704
10 0 59816  12822.000000  0    -389886.104    822236.375   6817085.412
10 0 59816  12942.000000  0     354655.606   1356891.944   6733263.935
10 0 59816  13062.000000  0    1102045.656   1854815.344   6531121.386
10 0 59816  13182.000000  0    1838521.886   2307383.420   6214189.124
10 0 59816  13302.000000  0    2550362.625   2706998.075   5788006.851
10 0 59816  13422.000000  0    3224143.267   3047215.796   5260032.460
10 0 59816  13542.000000  0    3846992.954   3322854.695   4639517.172
10 0 59816  13662.000000  0    4406843.110   3530075.831   3937347.884
10 0 59816  13782.000000  0    4892667.826   3666438.589   3165862.631
10 0 59816  13902.000000  0    5294709.424   3730928.431   2338632.745
10 0 59816  14022.000000  0    5604679.651   3723953.452   1470221.971
10 0 59816  14142.000000  0    5815935.291   3647312.840    575925.094
10 0 59816  14262.000000  0    5923622.077   3504135.948   -328509.560
10 0 59816  14382.000000  0    5924782.589   3298793.549  -1227166.239
10 0 59816  14502.000000  0    5818426.150   3036783.958  -2104250.385
10 0 59816  14622.000000  0    5605558.305   2724597.524  -2944372.961
10 0 59816  14742.000000  0    5289170.985   2369563.124  -3732824.965
10 0 59816  14862.000000  0    4874194.270   1979680.001  -4455836.958
10 0 59816  14982.000000  0    4367408.541   1563439.163  -5100818.191
10 0 59816  15102.000000  0    3777322.860   1129640.026  -5656568.382
10 0 59816  15222.000000  0    3114023.489    687206.972  -6113463.234
10 0 59816  15342.000000  0    2388994.145    245008.561  -6463610.428
10 0 59816  15462.000000  0    1614913.601   -188316.197  -6700973.823
10 0 59816  15582.000000  0     805435.028   -604522.284  -6821467.898
10 0 59816  15702.000000  0     -25052.965   -995911.664  -6823020.942
10 0 59816  15822.000000  0    -861676.610  -1355471.289  -6705605.035
10 0 59816  15942.000000  0   -1689336.381  -1676995.242  -6471237.235
10 0 59816  16062.000000  0   -2492973.659  -1955190.095  -6123948.834
10 0 59816  16182.000000  0   -3257838.526  -2185760.854  -5669722.732
10 0 59816  16302.000000  0   -3969757.045  -2365477.887  -5116402.181
10 0 59816  16422.000000  0   -4615395.778  -2492223.203  -4473567.267
10 0 59816  16542.000000  0   -5182515.584  -2565014.224  -3752379.732
10 0 59816  16662.000000  0   -5660210.930  -2584004.924  -2965398.651
10 0 59816  16782.000000  0   -6039129.301  -2550463.288  -2126367.720
10 0 59816  16902.000000  0   -6311664.470  -2466725.587  -1249977.815
10 0 59816  17022.000000  0   -6472119.118  -2336128.025   -351608.482
10 0 59816  17142.000000  0   -6516831.375  -2162916.914    552946.699
10 0 59816  17262.000000  0   -6444262.258  -1952139.275   1447765.304
10 0 59816  17382.000000  0   -6255039.993  -1709516.644   2317086.043
10 0 59816  17502.000000  0   -5951959.288  -1441305.583   3145595.355
10 0 59816  17622.000000  0   -5539938.260  -1154148.095   3918704.724
10 0 59816  17742.000000  0   -5025931.062   -854915.718   4622814.238
10 0 59816  17862.000000  0   -4418800.147   -550551.937   5245552.328
10 0 59816  17982.000000  0   -3729155.360   -247917.061   5775991.610
10 0 59816  18102.000000  0   -2969159.713     46362.093   6204838.242
10 0 59816  18222.000000  0   -2152306.505    326033.672   6524589.400
10 0 59816  18342.000000  0   -1293173.915    585349.436   6729658.398
10 0 59816  18462.000000  0    -407161.577    819180.296   6816466.345
10 0 59816  18582.000000  0     489785.884   1023116.103   6783499.953
10 0 59816  18702.000000  0    1381464.797   1193548.163   6631336.143
10 0 59816  18822.000000  0    2251704.247   1327733.493   6362632.567
10 0 59816  18942.000000  0    3084658.632   1423838.999   5982084.296
10 0 59816  19062.000000  0    3865098.128   1480965.430   5496347.178
10 0 59816  19182.000000  0    4578690.052   1499150.508   4913926.309
10 0 59816  19302.000000  0    5212266.980   1479352.068   4245034.652
10 0 59816  19422.000000  0    5754080.016   1423410.710   3501419.191
10 0 59816  19542.000000  0    6194025.979   1333992.898   2696154.602
10 0 59816  19662.000000  0    6523844.626   1214514.182   1843413.312
10 0 59816  19782.000000  0    6737283.082   1069046.337    958212.216
10 0 59816  19902.000000  0    6830220.393    902209.499     56141.551
10 0 59816  20022.000000  0    6800750.929    719052.076   -846917.878
10 0 59816  20142.000000  0    6649221.580    524921.451  -1735084.147
10 0 59816  20262.000000  0    6378223.181    325328.618  -2592760.955
10 0 59816  20382.000000  0    5992538.273    125810.756  -3404917.252
10 0 59816  20502.000000  0    5499045.934    -68204.636  -4157354.008
10 0 59816  20622.000000  0    4906585.650   -251530.780  -4836952.257
10 0 59816  20742.000000  0    4225785.611   -419344.261  -5431896.101
10 0 59816  20862.000000  0    3468862.160   -567297.057  -5931869.933
10 0 59816  20982.000000  0    2649392.726   -691616.431  -6328228.069
10 0 59816  21102.000000  0    1782066.861   -789189.354  -6614132.499
10 0 59816  21222.000000  0     882423.074   -857631.068  -6784659.313
10 0 59816  21342.000000  0     -33426.606   -895337.027  -6836875.423
10 0 59816  21462.000000  0    -949079.868   -901516.148  -6769882.630
10 0 59816  21582.000000  0   -1848130.521   -876206.488  -6584831.791
10 0 59816  21702.000000  0   -2714456.257   -820272.090  -6284904.762
10 0 59816  21822.000000  0   -3532500.705   -735381.760  -5875264.581
10 0 59816  21942.000000  0   -4287549.179   -623969.969  -5362977.656
10 0 59816  22062.000000  0   -4965995.025   -489179.899  -4756902.914
10 0 59816  22182.000000  0   -5555588.858   -334790.045  -4067550.124
10 0 59816  22302.000000  0   -6045668.832   -165125.534  -3306908.842
10 0 59816  22422.000000  0   -6427365.081     15045.379  -2488247.113
10 0 59816  22542.000000  0   -6693773.382    200626.285  -1625884.794
10 0 59816  22662.000000  0   -6840094.052    386318.052   -734943.412
10 0 59816  22782.000000  0   -6863729.894    566749.965    168924.445
10 0 59816  22902.000000  0   -6764338.649    736614.446   1069816.639
10 0 59816  23022.000000  0   -6543842.636    890801.453   1951868.624
10 0 59816  23142.000000  0   -6206392.786   1024529.101   2799542.347
10 0 59816  23262.000000  0   -5758286.646   1133467.113   3597909.025
10 0 59816  23382.000000  0   -5207842.859   1213849.711   4332918.559
10 0 59816  23502.000000  0   -4565237.058   1262575.391   4991649.703
10 0 59816  23622.000000  0   -3842303.791   1277290.837   5562536.867
10 0 59816  23742.000000  0   -3052309.955   1256457.696   6035570.642
10 0 59816  23862.000000  0   -2209703.651   1199400.571   6402469.899
10 0 59816  23982.000000  0   -1329842.665   1106335.972   6656821.442
10 0 59816  24102.000000  0    -428710.310    978380.678   6794184.642
10 0 59816  24222.000000  0     477375.282    817540.135   6812163.305
10 0 59816  24342.000000  0    1372055.639    626676.884   6710444.573
10 0 59816  24462.000000  0    2239225.978    409459.987   6490804.071
10 0 59816  24582.000000  0    3063324.259    170295.675   6157077.650
10 0 59816  24702.000000  0    3829612.183    -85759.971   5715099.269
10 0 59816  24822.000000  0    4524441.985   -353104.863   5172604.215
10 0 59816  24942.000000  0    5135504.899   -625709.109   4539099.821
10 0 59816  25062.000000  0    5652056.942   -897245.852   3825704.030
10 0 59816  25182.000000  0    6065117.611  -1161232.188   3044954.017
10 0 59816  25302.000000  0    6367636.017  -1411176.827   2210585.808
10 0 59816  25422.000000  0    6554620.106  -1640730.373   1337289.841
10 0 59816  25542.000000  0    6623225.542  -1843835.534    440447.408
10 0 59816  25662.000000  0    6572802.526  -2014874.352   -464148.121
10 0 59816  25782.000000  0    6404896.742  -2148805.950  -1360578.956
99
